{"type": "FeatureCollection", "features": [ {"type": "Feature", "properties": {"norad_id": 66489, "name": "STARLINK-35696", "group": "last-30-days", "lat": -27.94292634846436, "lon": 119.43406035921477, "alt_km": 410.59557614034475, "timestamp": "2025-12-07T18:50:15.513783+00:00", "meta": {"OBJECT_NAME": "STARLINK-35696", "OBJECT_ID": "2025-263E", "EPOCH": "2025-12-07T06:00:04.999968", "MEAN_MOTION": 15.55010537, "ECCENTRICITY": 0.00015564, "INCLINATION": 42.9998, "RA_OF_ASC_NODE": 157.2748, "ARG_OF_PERICENTER": 271.7717, "MEAN_ANOMALY": 289.5413, "EPHEMERIS_TYPE": 0, "CLASSIFICATION_TYPE": "U", "NORAD_CAT_ID": 66489, "ELEMENT_SET_NO": 999, "REV_AT_EPOCH": 475, "BSTAR": -0.03427263, "MEAN_MOTION_DOT": -0.02099647, "MEAN_MOTION_DDOT": 0}, "tle": {"line1": "1 66489U 25263E   25341.25005787 -.02099647  00000+0 -34273-1 0  9998", "line2": "2 66489  42.9998 157.2748 0001556 271.7717 289.5413 15.55010537  4759"}}, "geometry": {"type": "Point", "coordinates": [119.43406035921477, -27.94292634846436]}}, {"type": "Feature", "properties": {"norad_id": 66490, "name": "STARLINK-35693", "group": "last-30-days", "lat": -26.85511056344238, "lon": 121.21285592621544, "alt_km": 410.8142979561444, "timestamp": "2025-12-07T18:50:15.513795+00:00", "meta": {"OBJECT_NAME": "STARLINK-35693", "OBJECT_ID": "2025-263F", "EPOCH": "2025-12-07T06:00:04.999968", "MEAN_MOTION": 15.5500024, "ECCENTRICITY": 0.00012633, "INCLINATION": 43.0003, "RA_OF_ASC_NODE": 157.2704, "ARG_OF_PERICENTER": 263.977, "MEAN_ANOMALY": 299.2579, "EPHEMERIS_TYPE": 0, "CLASSIFICATION_TYPE": "U", "NORAD_CAT_ID": 66490, "ELEMENT_SET_NO": 999, "REV_AT_EPOCH": 475, "BSTAR": -0.033978764, "MEAN_MOTION_DOT": -0.02082715, "MEAN_MOTION_DDOT": 0}, "tle": {"line1": "1 66490U 25263F   25341.25005787 -.02082715  00000+0 -33979-1 0  9990", "line2": "2 66490  43.0003 157.2704 0001263 263.9770 299.2579 15.55000240  4750"}}, "geometry": {"type": "Point", "coordinates": [121.21285592621544, -26.85511056344238]}}, {"type": "Feature", "properties": {"norad_id": 66491, "name": "STARLINK-35663", "group": "last-30-days", "lat": -24.622237726396108, "lon": 124.65591328016234, "alt_km": 410.61610073114116, "timestamp": "2025-12-07T18:50:15.513805+00:00", "meta": {"OBJECT_NAME": "STARLINK-35663", "OBJECT_ID": "2025-263G", "EPOCH": "2025-12-07T06:00:04.999968", "MEAN_MOTION": 15.55003434, "ECCENTRICITY": 0.00012856, "INCLINATION": 43.0001, "RA_OF_ASC_NODE": 157.2605, "ARG_OF_PERICENTER": 268.6572, "MEAN_ANOMALY": 298.4102, "EPHEMERIS_TYPE": 0, "CLASSIFICATION_TYPE": "U", "NORAD_CAT_ID": 66491, "ELEMENT_SET_NO": 999, "REV_AT_EPOCH": 475, "BSTAR": -0.03407017, "MEAN_MOTION_DOT": -0.02087937, "MEAN_MOTION_DDOT": 0}, "tle": {"line1": "1 66491U 25263G   25341.25005787 -.02087937  00000+0 -34070-1 0  9995", "line2": "2 66491  43.0001 157.2605 0001285 268.6572 298.4102 15.55003434  4756"}}, "geometry": {"type": "Point", "coordinates": [124.65591328016234, -24.622237726396108]}}, {"type": "Feature", "properties": {"norad_id": 66492, "name": "STARLINK-35673", "group": "last-30-days", "lat": -23.47497567317577, "lon": 126.3331747573095, "alt_km": 410.48345778460134, "timestamp": "2025-12-07T18:50:15.513815+00:00", "meta": {"OBJECT_NAME": "STARLINK-35673", "OBJECT_ID": "2025-263H", "EPOCH": "2025-12-07T06:00:04.999968", "MEAN_MOTION": 15.55002521, "ECCENTRICITY": 0.00013819, "INCLINATION": 43.0001, "RA_OF_ASC_NODE": 157.2558, "ARG_OF_PERICENTER": 269.706, "MEAN_ANOMALY": 299.2768, "EPHEMERIS_TYPE": 0, "CLASSIFICATION_TYPE": "U", "NORAD_CAT_ID": 66492, "ELEMENT_SET_NO": 999, "REV_AT_EPOCH": 475, "BSTAR": -0.034009039, "MEAN_MOTION_DOT": -0.02084601, "MEAN_MOTION_DDOT": 0}, "tle": {"line1": "1 66492U 25263H   25341.25005787 -.02084601  00000+0 -34009-1 0  9993", "line2": "2 66492  43.0001 157.2558 0001381 269.7060 299.2768 15.55002521  4758"}}, "geometry": {"type": "Point", "coordinates": [126.3331747573095, -23.47497567317577]}}, {"type": "Feature", "properties": {"norad_id": 66493, "name": "STARLINK-35597", "group": "last-30-days", "lat": -22.310215529026188, "lon": 127.98041452926716, "alt_km": 410.4359112542379, "timestamp": "2025-12-07T18:50:15.513825+00:00", "meta": {"OBJECT_NAME": "STARLINK-35597", "OBJECT_ID": "2025-263J", "EPOCH": "2025-12-07T06:00:04.999968", "MEAN_MOTION": 15.54994577, "ECCENTRICITY": 0.00012743, "INCLINATION": 43.0004, "RA_OF_ASC_NODE": 157.2503, "ARG_OF_PERICENTER": 270.6508, "MEAN_ANOMALY": 300.254, "EPHEMERIS_TYPE": 0, "CLASSIFICATION_TYPE": "U", "NORAD_CAT_ID": 66493, "ELEMENT_SET_NO": 999, "REV_AT_EPOCH": 475, "BSTAR": -0.033828492, "MEAN_MOTION_DOT": -0.02074127, "MEAN_MOTION_DDOT": 0}, "tle": {"line1": "1 66493U 25263J   25341.25005787 -.02074127  00000+0 -33828-1 0  9994", "line2": "2 66493  43.0004 157.2503 0001274 270.6508 300.2540 15.54994577  4752"}}, "geometry": {"type": "Point", "coordinates": [127.98041452926716, -22.310215529026188]}}, {"type": "Feature", "properties": {"norad_id": 66494, "name": "STARLINK-35689", "group": "last-30-days", "lat": -25.747502550876877, "lon": 122.95251444437369, "alt_km": 410.9439976982585, "timestamp": "2025-12-07T18:50:15.513835+00:00", "meta": {"OBJECT_NAME": "STARLINK-35689", "OBJECT_ID": "2025-263K", "EPOCH": "2025-12-07T06:00:04.999968", "MEAN_MOTION": 15.54996879, "ECCENTRICITY": 0.00012255, "INCLINATION": 43.0001, "RA_OF_ASC_NODE": 157.2654, "ARG_OF_PERICENTER": 255.4558, "MEAN_ANOMALY": 309.6965, "EPHEMERIS_TYPE": 0, "CLASSIFICATION_TYPE": "U", "NORAD_CAT_ID": 66494, "ELEMENT_SET_NO": 999, "REV_AT_EPOCH": 475, "BSTAR": -0.033898333, "MEAN_MOTION_DOT": -0.02078069, "MEAN_MOTION_DDOT": 0}, "tle": {"line1": "1 66494U 25263K   25341.25005787 -.02078069  00000+0 -33898-1 0  9991", "line2": "2 66494  43.0001 157.2654 0001225 255.4558 309.6965 15.54996879  4750"}}, "geometry": {"type": "Point", "coordinates": [122.95251444437369, -25.747502550876877]}}, {"type": "Feature", "properties": {"norad_id": 66495, "name": "STARLINK-35832", "group": "last-30-days", "lat": -21.128589696005207, "lon": 129.60153261786152, "alt_km": 410.4691535980837, "timestamp": "2025-12-07T18:50:15.513846+00:00", "meta": {"OBJECT_NAME": "STARLINK-35832", "OBJECT_ID": "2025-263L", "EPOCH": "2025-12-07T06:00:04.999968", "MEAN_MOTION": 15.54998928, "ECCENTRICITY": 0.00013481, "INCLINATION": 43.0005, "RA_OF_ASC_NODE": 157.2459, "ARG_OF_PERICENTER": 264.5498, "MEAN_ANOMALY": 308.2696, "EPHEMERIS_TYPE": 0, "CLASSIFICATION_TYPE": "U", "NORAD_CAT_ID": 66495, "ELEMENT_SET_NO": 999, "REV_AT_EPOCH": 475, "BSTAR": -0.033920242, "MEAN_MOTION_DOT": -0.02079484, "MEAN_MOTION_DDOT": 0}, "tle": {"line1": "1 66495U 25263L   25341.25005787 -.02079484  00000+0 -33920-1 0  9990", "line2": "2 66495  43.0005 157.2459 0001348 264.5498 308.2696 15.54998928  4751"}}, "geometry": {"type": "Point", "coordinates": [129.60153261786152, -21.128589696005207]}}, {"type": "Feature", "properties": {"norad_id": 66496, "name": "STARLINK-35909", "group": "last-30-days", "lat": -19.932799929058305, "lon": 131.19428202184523, "alt_km": 410.3175792209786, "timestamp": "2025-12-07T18:50:15.513856+00:00", "meta": {"OBJECT_NAME": "STARLINK-35909", "OBJECT_ID": "2025-263M", "EPOCH": "2025-12-07T06:00:04.999968", "MEAN_MOTION": 15.54995942, "ECCENTRICITY": 0.00012661, "INCLINATION": 43.0001, "RA_OF_ASC_NODE": 157.2409, "ARG_OF_PERICENTER": 269.5422, "MEAN_ANOMALY": 305.1957, "EPHEMERIS_TYPE": 0, "CLASSIFICATION_TYPE": "U", "NORAD_CAT_ID": 66496, "ELEMENT_SET_NO": 999, "REV_AT_EPOCH": 475, "BSTAR": -0.033840874, "MEAN_MOTION_DOT": -0.02074892, "MEAN_MOTION_DDOT": 0}, "tle": {"line1": "1 66496U 25263M   25341.25005787 -.02074892  00000+0 -33841-1 0  9991", "line2": "2 66496  43.0001 157.2409 0001266 269.5422 305.1957 15.54995942  4753"}}, "geometry": {"type": "Point", "coordinates": [131.19428202184523, -19.932799929058305]}}, {"type": "Feature", "properties": {"norad_id": 66497, "name": "STARLINK-35899", "group": "last-30-days", "lat": -18.72395590536197, "lon": 132.76163544597748, "alt_km": 410.1323593694333, "timestamp": "2025-12-07T18:50:15.513866+00:00", "meta": {"OBJECT_NAME": "STARLINK-35899", "OBJECT_ID": "2025-263N", "EPOCH": "2025-12-07T06:00:04.999968", "MEAN_MOTION": 15.5500322, "ECCENTRICITY": 0.00014968, "INCLINATION": 43.0003, "RA_OF_ASC_NODE": 157.2354, "ARG_OF_PERICENTER": 271.6398, "MEAN_ANOMALY": 305.0127, "EPHEMERIS_TYPE": 0, "CLASSIFICATION_TYPE": "U", "NORAD_CAT_ID": 66497, "ELEMENT_SET_NO": 999, "REV_AT_EPOCH": 475, "BSTAR": -0.034060756, "MEAN_MOTION_DOT": -0.02087547, "MEAN_MOTION_DDOT": 0}, "tle": {"line1": "1 66497U 25263N   25341.25005787 -.02087547  00000+0 -34061-1 0  9998", "line2": "2 66497  43.0003 157.2354 0001496 271.6398 305.0127 15.55003220  4754"}}, "geometry": {"type": "Point", "coordinates": [132.76163544597748, -18.72395590536197]}}, {"type": "Feature", "properties": {"norad_id": 66498, "name": "STARLINK-35907", "group": "last-30-days", "lat": -17.504792800000438, "lon": 134.30253243733517, "alt_km": 410.2174602346404, "timestamp": "2025-12-07T18:50:15.513878+00:00", "meta": {"OBJECT_NAME": "STARLINK-35907", "OBJECT_ID": "2025-263P", "EPOCH": "2025-12-07T06:00:04.999968", "MEAN_MOTION": 15.5500917, "ECCENTRICITY": 0.00013758, "INCLINATION": 43.0001, "RA_OF_ASC_NODE": 157.2295, "ARG_OF_PERICENTER": 267.7137, "MEAN_ANOMALY": 310.8556, "EPHEMERIS_TYPE": 0, "CLASSIFICATION_TYPE": "U", "NORAD_CAT_ID": 66498, "ELEMENT_SET_NO": 999, "REV_AT_EPOCH": 475, "BSTAR": -0.03431193, "MEAN_MOTION_DOT": -0.02101572, "MEAN_MOTION_DDOT": 0}, "tle": {"line1": "1 66498U 25263P   25341.25005787 -.02101572  00000+0 -34312-1 0  9993", "line2": "2 66498  43.0001 157.2295 0001375 267.7137 310.8556 15.55009170  4750"}}, "geometry": {"type": "Point", "coordinates": [134.30253243733517, -17.504792800000438]}}]}